[{"OBJECT_NAME":"STARLINK-30397","OBJECT_ID":"2023-134A","EPOCH":"2026-03-09T08:36:14.747328","MEAN_MOTION":15.27596688,"ECCENTRICITY":7.4e-5,"INCLINATION":42.9993,"RA_OF_ASC_NODE":196.5752,"ARG_OF_PERICENTER":162.6936,"MEAN_ANOMALY":197.3941,"EPHEMERIS_TYPE":0,"CLASSIFICATION_TYPE":"U","NORAD_CAT_ID":57771,"ELEMENT_SET_NO":999,"REV_AT_EPOCH":13945,"BSTAR":-0.00017550571,"MEAN_MOTION_DOT":-5.09e-5,"MEAN_MOTION_DDOT":0},{"OBJECT_NAME":"KUIPER-00266","OBJECT_ID":"2026-030AB","EPOCH":"2026-03-08T21:54:37.698048","MEAN_MOTION":15.30874235,"ECCENTRICITY":0.0022313,"INCLINATION":51.8807,"RA_OF_ASC_NODE":223.5904,"ARG_OF_PERICENTER":72.5291,"MEAN_ANOMALY":287.8129,"EPHEMERIS_TYPE":0,"CLASSIFICATION_TYPE":"U","NORAD_CAT_ID":67789,"ELEMENT_SET_NO":999,"REV_AT_EPOCH":496,"BSTAR":0.00098219753,"MEAN_MOTION_DOT":0.00029701,"MEAN_MOTION_DDOT":0}]
