STARLINK-30397          
1 57771U 23134A   26068.35850402 -.00005090  00000+0 -17551-3 0  9996
2 57771  42.9993 196.5752 0000740 162.6936 197.3941 15.27596688139457
KUIPER-00266            
1 67789U 26030AB  26067.91293632  .00029701  00000+0  98220-3 0  9996
2 67789  51.8807 223.5904 0022313  72.5291 287.8129 15.30874235  4964
